{
  "type": "FeatureCollection",
  "features": [
    {
      "type": "Feature",
      "properties": {
        "norad_id": 37906,
        "name": "FENGYUN 1C DEB",
        "group": "fengyun-1c-debris",
        "lat": -15.764495247535478,
        "lon": -165.3841052517646,
        "alt_km": 1057.8818963596505,
        "timestamp": "2025-12-02T15:49:07.479895+00:00",
        "meta_object_name": "FENGYUN 1C DEB",
        "meta_object_id": "1999-025ENF",
        "meta_epoch": "2025-12-01T09:23:46.720608",
        "meta_mean_motion": 13.80764682,
        "meta_eccentricity": 0.01629895,
        "meta_inclination": 99.6032,
        "meta_ra_of_asc_node": 16.0673,
        "meta_arg_of_pericenter": 58.304,
        "meta_mean_anomaly": 318.7787,
        "meta_ephemeris_type": 0,
        "meta_classification_type": "U",
        "meta_norad_cat_id": 37906,
        "meta_element_set_no": 999,
        "meta_rev_at_epoch": 59299,
        "meta_bstar": 0.00066212459,
        "meta_mean_motion_dot": 7.25e-06,
        "meta_mean_motion_ddot": 0,
        "tle_line1": "1 37906U 99025ENF 25335.39151297  .00000725  00000+0  66212-3 0  9998",
        "tle_line2": "2 37906  99.6032  16.0673 0162989  58.3040 318.7787 13.80764682592994"
      },
      "geometry": {
        "type": "Point",
        "coordinates": [
          -165.3841052517646,
          -15.764495247535478
        ]
      }
    },
    {
      "type": "Feature",
      "properties": {
        "norad_id": 37907,
        "name": "FENGYUN 1C DEB",
        "group": "fengyun-1c-debris",
        "lat": 30.72573113474843,
        "lon": 83.86086896962378,
        "alt_km": 858.16569047343,
        "timestamp": "2025-12-02T15:49:07.479905+00:00",
        "meta_object_name": "FENGYUN 1C DEB",
        "meta_object_id": "1999-025ENG",
        "meta_epoch": "2025-11-30T02:55:58.989792",
        "meta_mean_motion": 14.23288046,
        "meta_eccentricity": 0.00636474,
        "meta_inclination": 99.08,
        "meta_ra_of_asc_node": 86.699,
        "meta_arg_of_pericenter": 220.282,
        "meta_mean_anomaly": 139.3633,
        "meta_ephemeris_type": 0,
        "meta_classification_type": "U",
        "meta_norad_cat_id": 37907,
        "meta_element_set_no": 999,
        "meta_rev_at_epoch": 83093,
        "meta_bstar": 0.0031898387,
        "meta_mean_motion_dot": 7.336e-05,
        "meta_mean_motion_ddot": 0,
        "tle_line1": "1 37907U 99025ENG 25334.12221053  .00007336  00000+0  31898-2 0  9993",
        "tle_line2": "2 37907  99.0800  86.6990 0063647 220.2820 139.3633 14.23288046830933"
      },
      "geometry": {
        "type": "Point",
        "coordinates": [
          83.86086896962378,
          30.72573113474843
        ]
      }
    },
    {
      "type": "Feature",
      "properties": {
        "norad_id": 37908,
        "name": "FENGYUN 1C DEB",
        "group": "fengyun-1c-debris",
        "lat": 50.13403551877169,
        "lon": -3.203797558339183,
        "alt_km": 803.4323286701338,
        "timestamp": "2025-12-02T15:49:07.479916+00:00",
        "meta_object_name": "FENGYUN 1C DEB",
        "meta_object_id": "1999-025ENH",
        "meta_epoch": "2025-11-30T20:06:58.592160",
        "meta_mean_motion": 14.3654054,
        "meta_eccentricity": 0.00743797,
        "meta_inclination": 99.1537,
        "meta_ra_of_asc_node": 5.9942,
        "meta_arg_of_pericenter": 192.521,
        "meta_mean_anomaly": 167.4129,
        "meta_ephemeris_type": 0,
        "meta_classification_type": "U",
        "meta_norad_cat_id": 37908,
        "meta_element_set_no": 999,
        "meta_rev_at_epoch": 63890,
        "meta_bstar": 0.00050226982,
        "meta_mean_motion_dot": 1.473e-05,
        "meta_mean_motion_ddot": 0,
        "tle_line1": "1 37908U 99025ENH 25334.83817815  .00001473  00000+0  50227-3 0  9993",
        "tle_line2": "2 37908  99.1537   5.9942 0074379 192.5210 167.4129 14.36540540638900"
      },
      "geometry": {
        "type": "Point",
        "coordinates": [
          -3.203797558339183,
          50.13403551877169
        ]
      }
    },
    {
      "type": "Feature",
      "properties": {
        "norad_id": 37912,
        "name": "FENGYUN 1C DEB",
        "group": "fengyun-1c-debris",
        "lat": -49.794235890957104,
        "lon": 113.90830838927747,
        "alt_km": 914.0642710999691,
        "timestamp": "2025-12-02T15:49:07.479927+00:00",
        "meta_object_name": "FENGYUN 1C DEB",
        "meta_object_id": "1999-025ENM",
        "meta_epoch": "2025-11-28T08:38:57.406560",
        "meta_mean_motion": 14.11306298,
        "meta_eccentricity": 0.00912878,
        "meta_inclination": 99.2265,
        "meta_ra_of_asc_node": 300.5793,
        "meta_arg_of_pericenter": 99.6915,
        "meta_mean_anomaly": 261.4581,
        "meta_ephemeris_type": 0,
        "meta_classification_type": "U",
        "meta_norad_cat_id": 37912,
        "meta_element_set_no": 999,
        "meta_rev_at_epoch": 77085,
        "meta_bstar": 0.0023127637,
        "meta_mean_motion_dot": 4.302e-05,
        "meta_mean_motion_ddot": 0,
        "tle_line1": "1 37912U 99025ENM 25332.36038665  .00004302  00000+0  23128-2 0  9995",
        "tle_line2": "2 37912  99.2265 300.5793 0091287  99.6915 261.4581 14.11306298770859"
      },
      "geometry": {
        "type": "Point",
        "coordinates": [
          113.90830838927747,
          -49.794235890957104
        ]
      }
    },
    {
      "type": "Feature",
      "properties": {
        "norad_id": 37918,
        "name": "FENGYUN 1C DEB",
        "group": "fengyun-1c-debris",
        "lat": 21.83809806990284,
        "lon": 109.32617153860483,
        "alt_km": 813.6294719319367,
        "timestamp": "2025-12-02T15:49:07.479937+00:00",
        "meta_object_name": "FENGYUN 1C DEB",
        "meta_object_id": "1999-025ENT",
        "meta_epoch": "2025-11-28T02:15:25.423200",
        "meta_mean_motion": 14.34284603,
        "meta_eccentricity": 0.00560093,
        "meta_inclination": 99.0257,
        "meta_ra_of_asc_node": 280.91,
        "meta_arg_of_pericenter": 327.008,
        "meta_mean_anomaly": 32.7613,
        "meta_ephemeris_type": 0,
        "meta_classification_type": "U",
        "meta_norad_cat_id": 37918,
        "meta_element_set_no": 999,
        "meta_rev_at_epoch": 3332,
        "meta_bstar": 0.00093523405,
        "meta_mean_motion_dot": 2.625e-05,
        "meta_mean_motion_ddot": 0,
        "tle_line1": "1 37918U 99025ENT 25332.09404425  .00002625  00000+0  93523-3 0  9995",
        "tle_line2": "2 37918  99.0257 280.9100 0056009 327.0080  32.7613 14.34284603 33320"
      },
      "geometry": {
        "type": "Point",
        "coordinates": [
          109.32617153860483,
          21.83809806990284
        ]
      }
    },
    {
      "type": "Feature",
      "properties": {
        "norad_id": 37919,
        "name": "FENGYUN 1C DEB",
        "group": "fengyun-1c-debris",
        "lat": -65.5942399735898,
        "lon": 73.68195654855354,
        "alt_km": 843.1631023422269,
        "timestamp": "2025-12-02T15:49:07.479947+00:00",
        "meta_object_name": "FENGYUN 1C DEB",
        "meta_object_id": "1999-025ENU",
        "meta_epoch": "2025-12-01T13:25:03.337824",
        "meta_mean_motion": 14.26713739,
        "meta_eccentricity": 0.00500779,
        "meta_inclination": 99.0554,
        "meta_ra_of_asc_node": 273.1218,
        "meta_arg_of_pericenter": 48.0524,
        "meta_mean_anomaly": 312.4907,
        "meta_ephemeris_type": 0,
        "meta_classification_type": "U",
        "meta_norad_cat_id": 37919,
        "meta_element_set_no": 999,
        "meta_rev_at_epoch": 64749,
        "meta_bstar": 0.00057424201,
        "meta_mean_motion_dot": 1.361e-05,
        "meta_mean_motion_ddot": 0,
        "tle_line1": "1 37919U 99025ENU 25335.55906641  .00001361  00000+0  57424-3 0  9993",
        "tle_line2": "2 37919  99.0554 273.1218 0050077  48.0524 312.4907 14.26713739647498"
      },
      "geometry": {
        "type": "Point",
        "coordinates": [
          73.68195654855354,
          -65.5942399735898
        ]
      }
    },
    {
      "type": "Feature",
      "properties": {
        "norad_id": 37921,
        "name": "FENGYUN 1C DEB",
        "group": "fengyun-1c-debris",
        "lat": -65.2343376637663,
        "lon": 177.80800471070694,
        "alt_km": 948.8396214860486,
        "timestamp": "2025-12-02T15:49:07.479958+00:00",
        "meta_object_name": "FENGYUN 1C DEB",
        "meta_object_id": "1999-025ENW",
        "meta_epoch": "2025-12-01T09:23:12.088032",
        "meta_mean_motion": 13.95144045,
        "meta_eccentricity": 0.00842704,
        "meta_inclination": 99.024,
        "meta_ra_of_asc_node": 16.7164,
        "meta_arg_of_pericenter": 129.5369,
        "meta_mean_anomaly": 231.3279,
        "meta_ephemeris_type": 0,
        "meta_classification_type": "U",
        "meta_norad_cat_id": 37921,
        "meta_element_set_no": 999,
        "meta_rev_at_epoch": 62989,
        "meta_bstar": 0.00026819904,
        "meta_mean_motion_dot": 3.3e-06,
        "meta_mean_motion_ddot": 0,
        "tle_line1": "1 37921U 99025ENW 25335.39111213  .00000330  00000+0  26820-3 0  9992",
        "tle_line2": "2 37921  99.0240  16.7164 0084270 129.5369 231.3279 13.95144045629896"
      },
      "geometry": {
        "type": "Point",
        "coordinates": [
          177.80800471070694,
          -65.2343376637663
        ]
      }
    }
  ]
}